[{"OBJECT_NAME":"STARLINK-31629","OBJECT_ID":"2024-050B","EPOCH":"2026-03-09T14:17:52.970208","MEAN_MOTION":15.30181219,"ECCENTRICITY":0.0001154,"INCLINATION":53.1601,"RA_OF_ASC_NODE":181.4675,"ARG_OF_PERICENTER":93.6915,"MEAN_ANOMALY":266.4217,"EPHEMERIS_TYPE":0,"CLASSIFICATION_TYPE":"U","NORAD_CAT_ID":59255,"ELEMENT_SET_NO":999,"REV_AT_EPOCH":11053,"BSTAR":2.9326e-5,"MEAN_MOTION_DOT":5.09e-6,"MEAN_MOTION_DDOT":0},{"OBJECT_NAME":"FENGYUN 1C DEB","OBJECT_ID":"1999-025CMP","EPOCH":"2026-03-08T08:37:00.789888","MEAN_MOTION":14.96815474,"ECCENTRICITY":0.01497126,"INCLINATION":98.9176,"RA_OF_ASC_NODE":115.7276,"ARG_OF_PERICENTER":148.4975,"MEAN_ANOMALY":212.5316,"EPHEMERIS_TYPE":0,"CLASSIFICATION_TYPE":"U","NORAD_CAT_ID":31938,"ELEMENT_SET_NO":999,"REV_AT_EPOCH":409,"BSTAR":0.00073670691,"MEAN_MOTION_DOT":0.00010536,"MEAN_MOTION_DDOT":0}]
